[{"OBJECT_NAME":"STARLINK-2413","OBJECT_ID":"2021-018AS","EPOCH":"2026-03-10T00:00:02.999808","MEAN_MOTION":15.15615622,"ECCENTRICITY":0.00017801,"INCLINATION":53.0936,"RA_OF_ASC_NODE":240.2652,"ARG_OF_PERICENTER":92.7433,"MEAN_ANOMALY":96.8889,"EPHEMERIS_TYPE":0,"CLASSIFICATION_TYPE":"U","NORAD_CAT_ID":47827,"ELEMENT_SET_NO":999,"REV_AT_EPOCH":579,"BSTAR":0.054547655,"MEAN_MOTION_DOT":0.01139249,"MEAN_MOTION_DDOT":0},{"OBJECT_NAME":"FLOCK 4H-10","OBJECT_ID":"2025-276AZ","EPOCH":"2026-03-09T18:16:56.157312","MEAN_MOTION":15.18574346,"ECCENTRICITY":0.00043041,"INCLINATION":97.4259,"RA_OF_ASC_NODE":143.9692,"ARG_OF_PERICENTER":8.4136,"MEAN_ANOMALY":351.717,"EPHEMERIS_TYPE":0,"CLASSIFICATION_TYPE":"U","NORAD_CAT_ID":66713,"ELEMENT_SET_NO":999,"REV_AT_EPOCH":1532,"BSTAR":0.00041463454,"MEAN_MOTION_DOT":8.509e-5,"MEAN_MOTION_DDOT":0}]
